OBJECT_NAME,OBJECT_ID,EPOCH,MEAN_MOTION,ECCENTRICITY,INCLINATION,RA_OF_ASC_NODE,ARG_OF_PERICENTER,MEAN_ANOMALY,EPHEMERIS_TYPE,CLASSIFICATION_TYPE,NORAD_CAT_ID,ELEMENT_SET_NO,REV_AT_EPOCH,BSTAR,MEAN_MOTION_DOT,MEAN_MOTION_DDOT
SAUDISAT 2,2004-025F,2026-06-19T13:41:27.662784,14.56685005,.00235186,98.5507,170.6140,290.5721,69.2953,0,U,28371,999,16609,.49334079E-4,.171E-5,0
COSMOS 2407,2004-028A,2026-06-19T11:42:14.359680,13.76334921,.00378775,82.9607,73.1305,245.2608,288.0490,0,U,28380,999,10019,.48321388E-4,.62E-6,0
COSMOS 2414,2005-002A,2026-06-19T08:08:13.161408,13.87926691,.00393477,82.9497,42.0188,325.0330,34.8249,0,U,28521,999,8411,.24836936E-4,.45E-6,0
INMARSAT 4-F1,2005-009A,2026-06-18T18:54:06.097248,1.00271302,.0002613,5.1714,42.7664,44.2002,281.6887,0,U,28628,999,7768,0,.24E-6,0
SJ-7,2005-024A,2026-06-19T12:34:24.184992,15.21571938,.00161158,97.7279,200.6904,30.2767,329.9396,0,U,28737,999,14838,.27566256E-3,.6163E-4,0
CUBESAT XI-V,2005-043F,2026-06-19T08:57:11.428416,14.72636457,.00137979,98.2987,326.0406,193.6141,166.4695,0,U,28895,999,10207,.17676343E-3,.1074E-4,0
HINODE (SOLAR-B),2006-041A,2026-06-19T13:40:46.639200,14.68625622,.00159689,98.0545,186.6874,281.5251,78.4161,0,U,29479,999,5522,.90631237E-4,.478E-5,0
SHIJIAN-6 02B (SJ-6 02B),2006-046B,2026-06-19T14:41:45.297312,15.01382485,.00154236,97.7152,199.6564,53.5604,306.7040,0,U,29506,999,7110,.89720542E-4,.1098E-4,0
DMSP 5D-3 F17 (USA 191),2006-050A,2026-06-19T13:46:23.263104,14.14993198,.00110864,98.7378,177.0952,53.2255,306.9935,0,U,29522,999,1276,.21281997E-4,-.2E-7,0
LAPAN-TUBSAT,2007-001A,2026-06-19T14:40:06.150720,14.85950903,.00121075,98.1339,169.8901,171.5017,188.6405,0,U,29709,999,5151,.45072218E-4,.336E-5,0
HAIYANG-1B,2007-010A,2026-06-19T14:12:29.990592,14.31027414,.00131805,98.3495,152.3440,188.9814,171.1136,0,U,31113,999,98,.40663001E-4,.65E-6,0
COSMO-SKYMED 2,2007-059A,2026-06-19T14:11:39.062112,14.82156601,.00013569,97.8886,354.1544,87.9939,272.1430,0,U,32376,999,236,.39337342E-4,.261E-5,0
CARTOSAT-2A,2008-021A,2026-06-19T14:48:27.129888,14.79241495,.0013235,97.7625,219.2431,101.7798,258.4900,0,U,32783,999,97916,.77279861E-4,.525E-5,0
CUTE-1.7+APD II (CO-65),2008-021C,2026-06-19T13:39:16.197408,15.09469530,.00095292,97.8277,152.0370,31.2532,328.9261,0,U,32785,999,98555,.28386961E-3,.4483E-4,0
SEEDS II (CO-66),2008-021J,2026-06-19T13:13:28.513344,15.32817335,.00007441,97.7522,168.5617,349.7207,10.4018,0,U,32791,999,98765,.46962589E-3,.14814E-3,0
YUBILEINY (RS30),2008-025A,2026-06-19T14:14:19.559616,12.43179384,.00187769,82.5039,353.9426,308.4356,51.5038,0,U,32953,999,81999,-.10355844E-3,-.5E-7,0
FENGYUN 3A,2008-026A,2026-06-19T14:02:01.407264,14.19571552,.00096795,98.6883,111.3731,117.3894,242.8269,0,U,32958,999,93574,.48994068E-4,.6E-6,0
HUANJING 1A (HJ-1A),2008-041A,2026-06-19T14:14:57.016608,14.83991859,.00201903,97.6684,156.3395,127.2458,233.0603,0,U,33320,999,95876,.15668308E-3,.1257E-4,0
HUANJING 1B (HJ-1B),2008-041B,2026-06-19T15:09:07.763904,14.83317810,.00362431,97.6521,159.5397,172.8930,187.2806,0,U,33321,999,95877,-.139755E-6,-.53E-6,0
SHIJIAN-6 03A (SJ-6 03A),2008-053A,2026-06-19T14:54:14.312736,15.17188026,.00113839,97.8405,204.0267,12.7024,347.4493,0,U,33408,999,96333,.28222419E-3,.5543E-4,0
SHIJIAN-6 03B (SJ-6 03B),2008-053B,2026-06-19T15:03:33.539328,15.04308574,.00205567,97.8564,190.5601,36.9864,323.2774,0,U,33409,999,96311,.17758439E-4,.183E-5,0
